{"fetched_at":"2026-04-04T02:03:33Z","count":15623,"tles":[{"name":"GXIBA-1","line1":"1 67685U 98067YB  26092.97769536  .00072331  00000+0  10703-2 0  9991","line2":"2 67685  51.6304 310.8473 0012340 271.8778  88.0799 15.54544320  8562","category":"Other"},{"name":"HMU-SAT2","line1":"1 67687U 98067YD  26093.62642274  .00063442  00000+0  94855-3 0  9999","line2":"2 67687  51.6306 307.6829 0008918 251.3290 108.6733 15.54358884  8580","category":"Other"},{"name":"CORAL","line1":"1 67684U 98067YA  26093.61229009  .00128594  00000+0  16033-2 0  9993","line2":"2 67684  51.6283 306.8347 0013444 267.8718  92.0735 15.58866079  8676","category":"Other"},{"name":"CREW DRAGON 12","line1":"1 67796U 26031A   26093.48852459  .00011755  00000+0  22309-3 0  9999","line2":"2 67796  51.6327 309.7562 0006234 267.4493  92.5781 15.48743801560142","category":"Other"},{"name":"PROGRESS-MS 33","line1":"1 68319U 26058A   26093.48852459  .00011755  00000+0  22309-3 0  9990","line2":"2 68319  51.6327 309.7562 0006234 267.4493  92.5781 15.48743801  1256","category":"Other"},{"name":"UITMSAT-2","line1":"1 67686U 98067YC  26093.60209937  .00082925  00000+0  11733-2 0  9991","line2":"2 67686  51.6305 307.5197 0009438 248.7743 111.2240 15.55741331  8662","category":"Other"},{"name":"LEOPARD","line1":"1 67688U 98067YE  26093.03217652  .00084376  00000+0  12198-2 0  9991","line2":"2 67688  51.6305 310.4638 0009181 245.8702 114.1330 15.55151529  8492","category":"Other"}]}